NORAD_CAT_ID,OBJECT_NAME,OBJECT_TYPE,EPOCH,MEAN_MOTION,ECCENTRICITY,INCLINATION,RA_OF_ASC_NODE,ARG_OF_PERICENTER,MEAN_ANOMALY,BSTAR,MEAN_MOTION_DOT,MEAN_MOTION_DDOT,TLE_LINE0,TLE_LINE1,TLE_LINE2,SEMIMAJOR_AXIS,PERIOD,APOGEE,PERIGEE,DECAYED
53793.0,STARLINK-4728,PAYLOAD,2024-08-19 10:34:34,15.08840077,0.0001649,53.2171,300.4022,102.393,257.7246,0.00011377,1.523e-05,0.0,0 STARLINK-4728,1 53793U 22111W   24232.44067387  .00001523  00000-0  11377-3 0  9999,2 53793  53.2171 300.4022 0001649 102.3930 257.7246 15.08840077107255,6917.88,95.438,540.886,538.604,0.0
53793.0,STARLINK-4728,PAYLOAD,2024-08-19 13:45:20,15.08836457,0.0001584,53.2164,299.8072,99.9799,260.1372,2.8164e-05,1.6e-06,0.0,0 STARLINK-4728,1 53793U 22111W   24232.57315533  .00000160  00000-0  28164-4 0  9991,2 53793  53.2164 299.8072 0001584  99.9799 260.1372 15.08836457108071,6917.891,95.438,540.852,538.66,0.0
53793.0,STARLINK-4728,PAYLOAD,2024-08-20 10:25:21,15.08845564,0.0001582,53.2166,295.9408,94.5136,265.6037,9.6357e-05,1.246e-05,0.0,0 STARLINK-4728,1 53793U 22111W   24233.43427266  .00001246  00000-0  96357-4 0  9999,2 53793  53.2166 295.9408 0001582  94.5136 265.6037 15.08845564108209,6917.863,95.437,540.823,538.634,0.0
53793.0,STARLINK-4728,PAYLOAD,2024-08-21 03:54:35,15.08843224,0.0001573,53.2163,292.6737,78.2948,281.822,0.00019188,2.767e-05,0.0,0 STARLINK-4728,1 53793U 22111W   24234.16291522  .00002767  00000-0  19188-3 0  9999,2 53793  53.2163 292.6737 0001573  78.2948 281.8220 15.08843224107513,6917.871,95.437,540.824,538.647,0.0
53793.0,STARLINK-4728,PAYLOAD,2024-08-21 10:16:08,15.0883836,0.0001539,53.216,291.4798,75.0872,285.0291,0.0001127,1.506e-05,0.0,0 STARLINK-4728,1 53793U 22111W   24234.42787842  .00001506  00000-0  11270-3 0  9997,2 53793  53.2160 291.4798 0001539  75.0872 285.0291 15.08838360108359,6917.885,95.438,540.815,538.686,0.0
